{
  "type": "FeatureCollection",
  "features": [
    {
      "type": "Feature",
      "properties": {
        "norad_id": 66913,
        "name": "2025-284A",
        "group": "last-30-days",
        "lat": -21.172963107596317,
        "lon": -58.72733546884561,
        "alt_km": 540.2969011151454,
        "timestamp": "2025-12-22T11:33:19.156499+00:00",
        "meta_object_name": "2025-284A",
        "meta_object_id": "2025-284A",
        "meta_epoch": "2025-12-22T07:28:52.634784",
        "meta_mean_motion": 15.08880159,
        "meta_eccentricity": 0.0013538,
        "meta_inclination": 80.4036,
        "meta_ra_of_asc_node": 117.7271,
        "meta_arg_of_pericenter": 262.5275,
        "meta_mean_anomaly": 97.4409,
        "meta_ephemeris_type": 0,
        "meta_classification_type": "U",
        "meta_norad_cat_id": 66913,
        "meta_element_set_no": 999,
        "meta_rev_at_epoch": 257,
        "meta_bstar": 0.00054472,
        "meta_mean_motion_dot": 8.62e-05,
        "meta_mean_motion_ddot": 0,
        "tle_line1": "1 66913U 25284A   25356.31172031  .00008620  00000+0  54472-3 0  9995",
        "tle_line2": "2 66913  80.4036 117.7271 0013538 262.5275  97.4409 15.08880159  2575"
      },
      "geometry": {
        "type": "Point",
        "coordinates": [
          -58.72733546884561,
          -21.172963107596317
        ]
      }
    },
    {
      "type": "Feature",
      "properties": {
        "norad_id": 66914,
        "name": "2025-284B",
        "group": "last-30-days",
        "lat": 21.899508950834257,
        "lon": 121.31676014873884,
        "alt_km": 513.8931742533541,
        "timestamp": "2025-12-22T11:33:19.156509+00:00",
        "meta_object_name": "2025-284B",
        "meta_object_id": "2025-284B",
        "meta_epoch": "2025-12-16T06:51:11.417184",
        "meta_mean_motion": 15.18985981,
        "meta_eccentricity": 0.00081793,
        "meta_inclination": 80.4045,
        "meta_ra_of_asc_node": 125.2713,
        "meta_arg_of_pericenter": 234.9626,
        "meta_mean_anomaly": 125.0834,
        "meta_ephemeris_type": 0,
        "meta_classification_type": "U",
        "meta_norad_cat_id": 66914,
        "meta_element_set_no": 999,
        "meta_rev_at_epoch": 166,
        "meta_bstar": 0.00038444995,
        "meta_mean_motion_dot": 8.068e-05,
        "meta_mean_motion_ddot": 0,
        "tle_line1": "1 66914U 25284B   25350.28554881  .00008068  00000+0  38445-3 0  9991",
        "tle_line2": "2 66914  80.4045 125.2713 0008179 234.9626 125.0834 15.18985981  1668"
      },
      "geometry": {
        "type": "Point",
        "coordinates": [
          121.31676014873884,
          21.899508950834257
        ]
      }
    },
    {
      "type": "Feature",
      "properties": {
        "norad_id": 66915,
        "name": "HULIANWANG DIGUI-105",
        "group": "last-30-days",
        "lat": 36.430852692590356,
        "lon": -140.68462370696432,
        "alt_km": 881.7842702605676,
        "timestamp": "2025-12-22T11:33:19.156524+00:00",
        "meta_object_name": "HULIANWANG DIGUI-105",
        "meta_object_id": "2025-285A",
        "meta_epoch": "2025-12-22T05:49:00.858720",
        "meta_mean_motion": 14.0371869,
        "meta_eccentricity": 0.0008067,
        "meta_inclination": 50.0051,
        "meta_ra_of_asc_node": 78.5771,
        "meta_arg_of_pericenter": 314.4374,
        "meta_mean_anomaly": 45.587,
        "meta_ephemeris_type": 0,
        "meta_classification_type": "U",
        "meta_norad_cat_id": 66915,
        "meta_element_set_no": 999,
        "meta_rev_at_epoch": 224,
        "meta_bstar": 0.00012148,
        "meta_mean_motion_dot": 4.1e-07,
        "meta_mean_motion_ddot": 0,
        "tle_line1": "1 66915U 25285A   25356.24237105  .00000041  00000+0  12148-3 0  9997",
        "tle_line2": "2 66915  50.0051  78.5771 0008067 314.4374  45.5870 14.03718690  2248"
      },
      "geometry": {
        "type": "Point",
        "coordinates": [
          -140.68462370696432,
          36.430852692590356
        ]
      }
    },
    {
      "type": "Feature",
      "properties": {
        "norad_id": 66916,
        "name": "HULIANWANG DIGUI-106",
        "group": "last-30-days",
        "lat": 26.95187198380964,
        "lon": -127.68872263647862,
        "alt_km": 882.3053672975147,
        "timestamp": "2025-12-22T11:33:19.156534+00:00",
        "meta_object_name": "HULIANWANG DIGUI-106",
        "meta_object_id": "2025-285B",
        "meta_epoch": "2025-12-22T05:44:51.758016",
        "meta_mean_motion": 14.03703562,
        "meta_eccentricity": 0.0006841,
        "meta_inclination": 50.0061,
        "meta_ra_of_asc_node": 78.5635,
        "meta_arg_of_pericenter": 307.7062,
        "meta_mean_anomaly": 52.3222,
        "meta_ephemeris_type": 0,
        "meta_classification_type": "U",
        "meta_norad_cat_id": 66916,
        "meta_element_set_no": 999,
        "meta_rev_at_epoch": 224,
        "meta_bstar": 0.00011907,
        "meta_mean_motion_dot": 3.7e-07,
        "meta_mean_motion_ddot": 0,
        "tle_line1": "1 66916U 25285B   25356.23948794  .00000037  00000+0  11907-3 0  9997",
        "tle_line2": "2 66916  50.0061  78.5635 0006841 307.7062  52.3222 14.03703562  2245"
      },
      "geometry": {
        "type": "Point",
        "coordinates": [
          -127.68872263647862,
          26.95187198380964
        ]
      }
    },
    {
      "type": "Feature",
      "properties": {
        "norad_id": 66917,
        "name": "HULIANWANG DIGUI-107",
        "group": "last-30-days",
        "lat": 20.481329904587742,
        "lon": -120.72119494927256,
        "alt_km": 883.9393188103395,
        "timestamp": "2025-12-22T11:33:19.156544+00:00",
        "meta_object_name": "HULIANWANG DIGUI-107",
        "meta_object_id": "2025-285C",
        "meta_epoch": "2025-12-22T05:42:15.894144",
        "meta_mean_motion": 14.03663483,
        "meta_eccentricity": 0.0007501,
        "meta_inclination": 50.0027,
        "meta_ra_of_asc_node": 78.547,
        "meta_arg_of_pericenter": 317.1748,
        "meta_mean_anomaly": 42.8572,
        "meta_ephemeris_type": 0,
        "meta_classification_type": "U",
        "meta_norad_cat_id": 66917,
        "meta_element_set_no": 999,
        "meta_rev_at_epoch": 224,
        "meta_bstar": 0.00010731,
        "meta_mean_motion_dot": 1.8e-07,
        "meta_mean_motion_ddot": 0,
        "tle_line1": "1 66917U 25285C   25356.23768396  .00000018  00000+0  10731-3 0  9999",
        "tle_line2": "2 66917  50.0027  78.5470 0007501 317.1748  42.8572 14.03663483  2244"
      },
      "geometry": {
        "type": "Point",
        "coordinates": [
          -120.72119494927256,
          20.481329904587742
        ]
      }
    },
    {
      "type": "Feature",
      "properties": {
        "norad_id": 66918,
        "name": "HULIANWANG DIGUI-108",
        "group": "last-30-days",
        "lat": 17.880674269341768,
        "lon": -118.16214107231062,
        "alt_km": 883.7080294006892,
        "timestamp": "2025-12-22T11:33:19.156554+00:00",
        "meta_object_name": "HULIANWANG DIGUI-108",
        "meta_object_id": "2025-285D",
        "meta_epoch": "2025-12-22T05:41:14.210592",
        "meta_mean_motion": 14.03602503,
        "meta_eccentricity": 0.0006646,
        "meta_inclination": 50.0049,
        "meta_ra_of_asc_node": 78.5474,
        "meta_arg_of_pericenter": 311.7871,
        "meta_mean_anomaly": 48.2465,
        "meta_ephemeris_type": 0,
        "meta_classification_type": "U",
        "meta_norad_cat_id": 66918,
        "meta_element_set_no": 999,
        "meta_rev_at_epoch": 224,
        "meta_bstar": 0.00010932,
        "meta_mean_motion_dot": 2.1e-07,
        "meta_mean_motion_ddot": 0,
        "tle_line1": "1 66918U 25285D   25356.23697003  .00000021  00000+0  10932-3 0  9993",
        "tle_line2": "2 66918  50.0049  78.5474 0006646 311.7871  48.2465 14.03602503  2246"
      },
      "geometry": {
        "type": "Point",
        "coordinates": [
          -118.16214107231062,
          17.880674269341768
        ]
      }
    },
    {
      "type": "Feature",
      "properties": {
        "norad_id": 66919,
        "name": "HULIANWANG DIGUI-109",
        "group": "last-30-days",
        "lat": 11.96031914676642,
        "lon": -112.70048837404156,
        "alt_km": 885.1752849448485,
        "timestamp": "2025-12-22T11:33:19.156564+00:00",
        "meta_object_name": "HULIANWANG DIGUI-109",
        "meta_object_id": "2025-285E",
        "meta_epoch": "2025-12-22T05:39:00.656064",
        "meta_mean_motion": 14.03726726,
        "meta_eccentricity": 0.0007899,
        "meta_inclination": 50.0073,
        "meta_ra_of_asc_node": 78.5442,
        "meta_arg_of_pericenter": 324.1031,
        "meta_mean_anomaly": 35.9342,
        "meta_ephemeris_type": 0,
        "meta_classification_type": "U",
        "meta_norad_cat_id": 66919,
        "meta_element_set_no": 999,
        "meta_rev_at_epoch": 224,
        "meta_bstar": 0.00011939,
        "meta_mean_motion_dot": 3.8e-07,
        "meta_mean_motion_ddot": 0,
        "tle_line1": "1 66919U 25285E   25356.23542426  .00000038  00000+0  11939-3 0  9998",
        "tle_line2": "2 66919  50.0073  78.5442 0007899 324.1031  35.9342 14.03726726  2247"
      },
      "geometry": {
        "type": "Point",
        "coordinates": [
          -112.70048837404156,
          11.96031914676642
        ]
      }
    }
  ]
}